{
    "districts": [
        {
            "name": "Southeast Kootenay",
		"district_number": "005"
        },
        {
            "name": "Rocky Mountain",
		"district_number": "006"
        }
	],
	"schools": [
		{
			"public_or_independent": "BC Public School",
			"district_number": "005",
			"school_number": "00501007",
			"school_name": "Jaffray Elem-Jr Secondary",
			"total_grant": "4180",
			"address": "PO BOX 378",
			"city": "JAFFRAY",
			"province": "BC",
			"postal_code": "V0B1T0"
		},
		{
			"public_or_independent": "BC Public School",
			"district_number": "005",
			"school_number": "00501007",
			"school_name": "Isabella Dicken Elementary",
			"total_grant": "11220",
			"address": "PO BOX 1559",
			"city": "FERNIE",
			"province": "BC",
			"postal_code": "V0B1M0"
		},
		{
			"public_or_independent": "BC Public School",
			"district_number": "005",
			"school_number": "00502011",
			"school_name": "Laurie Middle School",
			"total_grant": "8260",
			"address": "1808 2ND ST S",
			"city": "CRANBROOK",
			"province": "BC",
			"postal_code": "V1C1C5"
		},
		{
			"public_or_independent": "BC Public School",
			"district_number": "006",
			"school_number": "00606000",
			"school_name": "Continuing Ed SD 06",
			"total_grant": "2000",
			"address": "BOX 430",
			"city": "INVERMERE",
			"province": "BC",
			"postal_code": "V0A1K0"
		},
		{
			"public_or_independent": "BC Public School",
			"district_number": "006",
			"school_number": "00618007",
			"school_name": "Nicholson Elementary",
			"total_grant": "2000",
			"address": "PO BOX 331",
			"city": "GOLDEN",
			"province": "BC",
			"postal_code": "V0A1H0"
		},
		{
			"public_or_independent": "BC Public School",
			"district_number": "006",
			"school_number": "00604012",
			"school_name": "J Alfred Laird Elementary",
			"total_grant": "4920",
			"address": "1202 13TH AVENUE",
			"city": "INVERMERE",
			"province": "BC",
			"postal_code": "V0A1K4"
		},
		{
			"public_or_independent": "BC Independent School",
			"district_number": "",
			"school_number": "00596109",
			"school_name": "St Mary's Catholic Independent",
			"total_grant": "2320",
			"address": "1701 5TH ST S",
			"city": "CRANBROOK",
			"province": "BC",
			"postal_code": "V1C1K1"
		},
		{
			"public_or_independent": "BC Independent School",
			"district_number": "",
			"school_number": "08597142",
			"school_name": "Chief & Council Of Gwa'Sala-'Nakwaxda'Xw",
			"total_grant": "2140",
			"address": "PO BOX 1799",
			"city": "PORT HARDY",
			"province": "BC",
			"postal_code": "V0N2P0"
		}
	]
}
